LEMUR-2-BALTO           
1 63395U 25052BH  26068.69493058  .00007621  00000+0  63456-3 0  9998
2 63395  97.6978 323.5166 0002279 359.2852   0.8367 14.98934076 53850
STARLINK-34014          
1 63942U 25098S   26068.95990676  .00010448  00000+0  88222-3 0  9992
2 63942  70.0002 273.7444 0001995 268.5137  91.5793 14.98326269 46589
